start=new Date('2023-01-05T00:00:00.000Z').valueOf();
sats=[{"NORAD_CAT_ID":"53702","ELEMENT_SET_NO":"999","CLASSIFICATION_TYPE":"U","DECAY_DATE":null,"PERIOD":"94.954","MEAN_MOTION_DOT":"-0.01154017","BSTAR":"-0.06348900000000","EPHEMERIS_TYPE":"0","MEAN_ANOMALY":"351.4513","OBJECT_TYPE":"PAYLOAD","ARG_OF_PERICENTER":"40.0449","SEMIMAJOR_AXIS":"6894.481","OBJECT_NAME":"STARLINK-4724","ECCENTRICITY":"0.00016450","RCS_SIZE":"LARGE","TLE_LINE1":"1 53702U 22107C   23004.58335648 -.01154017  00000-0 -63489-1 0  9992","APOAPSIS":"517.480","OBJECT_ID":"2022-107C","PERIAPSIS":"515.212","MEAN_MOTION":"15.16527801","MEAN_MOTION_DDOT":"0.0000000000000","FILE":"3731823","LAUNCH_DATE":"2022-09-05","INCLINATION":"53.2172","EPOCH":"2023-01-04T14:00:01.999872","MEAN_ELEMENT_THEORY":"SGP4","TIME_SYSTEM":"UTC","RA_OF_ASC_NODE":"37.2612","REV_AT_EPOCH":"130","REF_FRAME":"TEME","COUNTRY_CODE":"US","TLE_LINE2":"2 53702  53.2172  37.2612 0001645  40.0449 351.4513 15.16527801  1309","SITE":"AFETR","CENTER_NAME":"EARTH","GP_ID":"222161729"},{"PERIOD":"95.437","MEAN_MOTION_DOT":"0.00002054","EPHEMERIS_TYPE":"0","BSTAR":"0.00014705000000","MEAN_ANOMALY":"316.6070","ELEMENT_SET_NO":"999","NORAD_CAT_ID":"53703","DECAY_DATE":null,"CLASSIFICATION_TYPE":"U","RCS_SIZE":"LARGE","APOAPSIS":"541.009","TLE_LINE1":"1 53703U 22107D   23004.40434987  .00002054  00000-0  14705-3 0  9999","OBJECT_TYPE":"PAYLOAD","SEMIMAJOR_AXIS":"6917.839","ARG_OF_PERICENTER":"43.5071","OBJECT_NAME":"STARLINK-4731","ECCENTRICITY":"0.00018860","LAUNCH_DATE":"2022-09-05","MEAN_ELEMENT_THEORY":"SGP4","INCLINATION":"53.2217","EPOCH":"2023-01-04T09:42:15.828768","TIME_SYSTEM":"UTC","OBJECT_ID":"2022-107D","PERIAPSIS":"538.399","MEAN_MOTION":"15.08853551","MEAN_MOTION_DDOT":"0.0000000000000","FILE":"3731823","SITE":"AFETR","TLE_LINE2":"2 53703  53.2217  52.5994 0001886  43.5071 316.6070 15.08853551 19696","GP_ID":"222162861","CENTER_NAME":"EARTH","REF_FRAME":"TEME","RA_OF_ASC_NODE":"52.5994","REV_AT_EPOCH":"1969","COUNTRY_CODE":"US"},{"COUNTRY_CODE":"US","REF_FRAME":"TEME","REV_AT_EPOCH":"1953","RA_OF_ASC_NODE":"52.8773","GP_ID":"222163080","CENTER_NAME":"EARTH","SITE":"AFETR","TLE_LINE2":"2 53704  53.2184  52.8773 0001724  71.7224 288.3956 15.08838415 19535","FILE":"3731823","MEAN_MOTION_DDOT":"0.0000000000000","MEAN_MOTION":"15.08838415","PERIAPSIS":"538.558","OBJECT_ID":"2022-107E","TIME_SYSTEM":"UTC","MEAN_ELEMENT_THEORY":"SGP4","LAUNCH_DATE":"2022-09-05","INCLINATION":"53.2184","EPOCH":"2023-01-04T10:49:53.838048","ECCENTRICITY":"0.00017240","OBJECT_NAME":"STARLINK-4714","ARG_OF_PERICENTER":"71.7224","SEMIMAJOR_AXIS":"6917.885","OBJECT_TYPE":"PAYLOAD","APOAPSIS":"540.943","TLE_LINE1":"1 53704U 22107E   23004.45131757  .00002199  00000-0  15624-3 0  9995","RCS_SIZE":"LARGE","DECAY_DATE":null,"CLASSIFICATION_TYPE":"U","ELEMENT_SET_NO":"999","NORAD_CAT_ID":"53704","MEAN_ANOMALY":"288.3956","BSTAR":"0.00015624000000","EPHEMERIS_TYPE":"0","MEAN_MOTION_DOT":"0.00002199","PERIOD":"95.438"},{"DECAY_DATE":null,"CLASSIFICATION_TYPE":"U","ELEMENT_SET_NO":"999","NORAD_CAT_ID":"53705","MEAN_ANOMALY":"271.0541","BSTAR":"0.00009912300000","EPHEMERIS_TYPE":"0","MEAN_MOTION_DOT":"0.00001291","PERIOD":"95.437","ECCENTRICITY":"0.00013390","OBJECT_NAME":"STARLINK-4717","SEMIMAJOR_AXIS":"6917.836","ARG_OF_PERICENTER":"89.0605","OBJECT_TYPE":"PAYLOAD","APOAPSIS":"540.628","TLE_LINE1":"1 53705U 22107F   23004.84505721  .00001291  00000-0  99123-4 0  9994","RCS_SIZE":"LARGE","MEAN_MOTION_DDOT":"0.0000000000000","FILE":"3732073","MEAN_MOTION":"15.08854374","PERIAPSIS":"538.775","OBJECT_ID":"2022-107F","TIME_SYSTEM":"UTC","INCLINATION":"53.2183","LAUNCH_DATE":"2022-09-05","EPOCH":"2023-01-04T20:16:52.942944","MEAN_ELEMENT_THEORY":"SGP4","COUNTRY_CODE":"US","REF_FRAME":"TEME","RA_OF_ASC_NODE":"51.0725","REV_AT_EPOCH":"1900","GP_ID":"222194395","CENTER_NAME":"EARTH","SITE":"AFETR","TLE_LINE2":"2 53705  53.2183  51.0725 0001339  89.0605 271.0541 15.08854374 19003"},{"RCS_SIZE":"LARGE","APOAPSIS":"540.983","TLE_LINE1":"1 53706U 22107G   23004.50377502  .00001453  00000-0  10938-3 0  9998","ARG_OF_PERICENTER":"45.2025","SEMIMAJOR_AXIS":"6917.886","OBJECT_TYPE":"PAYLOAD","OBJECT_NAME":"STARLINK-4716","ECCENTRICITY":"0.00017810","MEAN_MOTION_DOT":"0.00001453","PERIOD":"95.438","MEAN_ANOMALY":"314.9112","BSTAR":"0.00010938000000","EPHEMERIS_TYPE":"0","ELEMENT_SET_NO":"999","NORAD_CAT_ID":"53706","DECAY_DATE":null,"CLASSIFICATION_TYPE":"U","SITE":"AFETR","TLE_LINE2":"2 53706  53.2179  52.4999 0001781  45.2025 314.9112 15.08838127 19704","GP_ID":"222162189","CENTER_NAME":"EARTH","REF_FRAME":"TEME","RA_OF_ASC_NODE":"52.4999","REV_AT_EPOCH":"1970","COUNTRY_CODE":"US","TIME_SYSTEM":"UTC","INCLINATION":"53.2179","LAUNCH_DATE":"2022-09-05","MEAN_ELEMENT_THEORY":"SGP4","EPOCH":"2023-01-04T12:05:26.161728","PERIAPSIS":"538.519","OBJECT_ID":"2022-107G","MEAN_MOTION_DDOT":"0.0000000000000","FILE":"3731823","MEAN_MOTION":"15.08838127"},{"ELEMENT_SET_NO":"999","NORAD_CAT_ID":"53707","DECAY_DATE":null,"CLASSIFICATION_TYPE":"U","PERIOD":"94.871","MEAN_MOTION_DOT":"-0.01182756","BSTAR":"-0.06277200000000","EPHEMERIS_TYPE":"0","MEAN_ANOMALY":"37.7169","OBJECT_TYPE":"PAYLOAD","ARG_OF_PERICENTER":"57.8771","SEMIMAJOR_AXIS":"6890.479","OBJECT_NAME":"STARLINK-4667","ECCENTRICITY":"0.00013010","RCS_SIZE":"LARGE","APOAPSIS":"513.241","TLE_LINE1":"1 53707U 22107H   23004.58335648 -.01182756  00000-0 -62772-1 0  9992","OBJECT_ID":"2022-107H","PERIAPSIS":"511.448","MEAN_MOTION":"15.17849096","FILE":"3731823","MEAN_MOTION_DDOT":"0.0000000000000","EPOCH":"2023-01-04T14:00:01.999872","LAUNCH_DATE":"2022-09-05","INCLINATION":"53.2173","MEAN_ELEMENT_THEORY":"SGP4","TIME_SYSTEM":"UTC","REF_FRAME":"TEME","REV_AT_EPOCH":"130","RA_OF_ASC_NODE":"37.1355","COUNTRY_CODE":"US","SITE":"AFETR","TLE_LINE2":"2 53707  53.2173  37.1355 0001301  57.8771  37.7169 15.17849096  1306","GP_ID":"222162415","CENTER_NAME":"EARTH"},{"SITE":"AFETR","TLE_LINE2":"2 53708  53.2171  37.0475 0001500  49.3010 353.2186 15.14689479 19184","GP_ID":"222134758","CENTER_NAME":"EARTH","REF_FRAME":"TEME","RA_OF_ASC_NODE":"37.0475","REV_AT_EPOCH":"1918","COUNTRY_CODE":"US","MEAN_ELEMENT_THEORY":"SGP4","LAUNCH_DATE":"2022-09-05","INCLINATION":"53.2171","EPOCH":"2023-01-04T16:00:00.999936","TIME_SYSTEM":"UTC","OBJECT_ID":"2022-107J","PERIAPSIS":"520.888","MEAN_MOTION":"15.14689479","MEAN_MOTION_DDOT":"0.0000000000000","FILE":"3731732","RCS_SIZE":"LARGE","APOAPSIS":"522.958","TLE_LINE1":"1 53708U 22107J   23004.66667824 -.01149327  00000-0 -66621-1 0  9990","OBJECT_TYPE":"PAYLOAD","SEMIMAJOR_AXIS":"6900.058","ARG_OF_PERICENTER":"49.3010","ECCENTRICITY":"0.00015000","OBJECT_NAME":"STARLINK-4694","PERIOD":"95.069","MEAN_MOTION_DOT":"-0.01149327","EPHEMERIS_TYPE":"0","BSTAR":"-0.06662100000000","MEAN_ANOMALY":"353.2186","ELEMENT_SET_NO":"999","NORAD_CAT_ID":"53708","DECAY_DATE":null,"CLASSIFICATION_TYPE":"U"},{"APOAPSIS":"546.332","TLE_LINE1":"1 53709U 22107K   23004.85409510  .00006469  00000-0  44316-3 0  9993","RCS_SIZE":"LARGE","OBJECT_NAME":"STARLINK-4685","ECCENTRICITY":"0.00022960","ARG_OF_PERICENTER":"30.8718","SEMIMAJOR_AXIS":"6922.878","OBJECT_TYPE":"PAYLOAD","MEAN_ANOMALY":"329.2408","BSTAR":"0.00044316000000","EPHEMERIS_TYPE":"0","MEAN_MOTION_DOT":"0.00006469","PERIOD":"95.541","DECAY_DATE":null,"CLASSIFICATION_TYPE":"U","ELEMENT_SET_NO":"999","NORAD_CAT_ID":"53709","GP_ID":"222194457","CENTER_NAME":"EARTH","SITE":"AFETR","TLE_LINE2":"2 53709  53.2178  55.4404 0002296  30.8718 329.2408 15.07206569 18941","COUNTRY_CODE":"US","REF_FRAME":"TEME","REV_AT_EPOCH":"1894","RA_OF_ASC_NODE":"55.4404","TIME_SYSTEM":"UTC","LAUNCH_DATE":"2022-09-05","INCLINATION":"53.2178","MEAN_ELEMENT_THEORY":"SGP4","EPOCH":"2023-01-04T20:29:53.816640","MEAN_MOTION_DDOT":"0.0000000000000","FILE":"3732075","MEAN_MOTION":"15.07206569","PERIAPSIS":"543.153","OBJECT_ID":"2022-107K"},{"SEMIMAJOR_AXIS":"6922.822","ARG_OF_PERICENTER":"50.3457","OBJECT_TYPE":"PAYLOAD","OBJECT_NAME":"STARLINK-4627","ECCENTRICITY":"0.00017860","RCS_SIZE":"LARGE","TLE_LINE1":"1 53711U 22107M   23004.85584993  .00001585  00000-0  12269-3 0  9991","APOAPSIS":"545.924","NORAD_CAT_ID":"53711","ELEMENT_SET_NO":"999","CLASSIFICATION_TYPE":"U","DECAY_DATE":null,"MEAN_MOTION_DOT":"0.00001585","PERIOD":"95.540","MEAN_ANOMALY":"309.7692","BSTAR":"0.00012269000000","EPHEMERIS_TYPE":"0","RA_OF_ASC_NODE":"55.4411","REV_AT_EPOCH":"1894","REF_FRAME":"TEME","COUNTRY_CODE":"US","TLE_LINE2":"2 53711  53.2199  55.4411 0001786  50.3457 309.7692 15.07224608 18947","SITE":"AFETR","CENTER_NAME":"EARTH","GP_ID":"222194469","PERIAPSIS":"543.451","OBJECT_ID":"2022-107M","MEAN_MOTION_DDOT":"0.0000000000000","FILE":"3732075","MEAN_MOTION":"15.07224608","TIME_SYSTEM":"UTC","INCLINATION":"53.2199","LAUNCH_DATE":"2022-09-05","EPOCH":"2023-01-04T20:32:25.433952","MEAN_ELEMENT_THEORY":"SGP4"},{"APOAPSIS":"545.922","TLE_LINE1":"1 53712U 22107N   23004.85362231  .00001262  00000-0  10148-3 0  9997","RCS_SIZE":"LARGE","ECCENTRICITY":"0.00017800","OBJECT_NAME":"STARLINK-4683","OBJECT_TYPE":"PAYLOAD","SEMIMAJOR_AXIS":"6922.825","ARG_OF_PERICENTER":"50.0373","EPHEMERIS_TYPE":"0","BSTAR":"0.00010148000000","MEAN_ANOMALY":"310.0774","PERIOD":"95.540","MEAN_MOTION_DOT":"0.00001262","DECAY_DATE":null,"CLASSIFICATION_TYPE":"U","ELEMENT_SET_NO":"999","NORAD_CAT_ID":"53712","GP_ID":"222194561","CENTER_NAME":"EARTH","SITE":"AFETR","TLE_LINE2":"2 53712  53.2201  55.4412 0001780  50.0373 310.0774 15.07223686 18942","COUNTRY_CODE":"US","REF_FRAME":"TEME","REV_AT_EPOCH":"1894","RA_OF_ASC_NODE":"55.4412","LAUNCH_DATE":"2022-09-05","INCLINATION":"53.2201","EPOCH":"2023-01-04T20:29:12.967584","MEAN_ELEMENT_THEORY":"SGP4","TIME_SYSTEM":"UTC","MEAN_MOTION":"15.07223686","MEAN_MOTION_DDOT":"0.0000000000000","FILE":"3732075","OBJECT_ID":"2022-107N","PERIAPSIS":"543.458"}];
